[{"OBJECT_NAME":"GHGSAT-C3","OBJECT_ID":"2022-057F","EPOCH":"2026-03-09T22:30:13.234752","MEAN_MOTION":15.32943835,"ECCENTRICITY":0.00073198,"INCLINATION":97.6431,"RA_OF_ASC_NODE":211.0668,"ARG_OF_PERICENTER":112.4588,"MEAN_ANOMALY":247.7429,"EPHEMERIS_TYPE":0,"CLASSIFICATION_TYPE":"U","NORAD_CAT_ID":52737,"ELEMENT_SET_NO":999,"REV_AT_EPOCH":21032,"BSTAR":0.00031249517,"MEAN_MOTION_DOT":9.871e-5,"MEAN_MOTION_DDOT":0},{"OBJECT_NAME":"STARLINK-34930","OBJECT_ID":"2025-212N","EPOCH":"2026-03-09T22:37:33.874752","MEAN_MOTION":15.30216773,"ECCENTRICITY":0.00012354,"INCLINATION":53.1605,"RA_OF_ASC_NODE":344.4006,"ARG_OF_PERICENTER":124.1789,"MEAN_ANOMALY":235.9329,"EPHEMERIS_TYPE":0,"CLASSIFICATION_TYPE":"U","NORAD_CAT_ID":65688,"ELEMENT_SET_NO":999,"REV_AT_EPOCH":2728,"BSTAR":0.0009701084,"MEAN_MOTION_DOT":0.00028498,"MEAN_MOTION_DDOT":0}]
